[{"OBJECT_NAME":"STARLINK-36921","OBJECT_ID":"2026-040E","EPOCH":"2026-03-11T06:00:02.000160","MEAN_MOTION":16.02423775,"ECCENTRICITY":0.00011063,"INCLINATION":97.2764,"RA_OF_ASC_NODE":18.5726,"ARG_OF_PERICENTER":121.0334,"MEAN_ANOMALY":13.3751,"EPHEMERIS_TYPE":0,"CLASSIFICATION_TYPE":"U","NORAD_CAT_ID":68019,"ELEMENT_SET_NO":999,"REV_AT_EPOCH":267,"BSTAR":-0.0018133903,"MEAN_MOTION_DOT":-0.01052306,"MEAN_MOTION_DDOT":0.00037033585},{"OBJECT_NAME":"STARLINK-36928","OBJECT_ID":"2026-040F","EPOCH":"2026-03-11T06:00:02.000160","MEAN_MOTION":16.0232509,"ECCENTRICITY":0.00011774,"INCLINATION":97.276,"RA_OF_ASC_NODE":18.5705,"ARG_OF_PERICENTER":113.4907,"MEAN_ANOMALY":17.928,"EPHEMERIS_TYPE":0,"CLASSIFICATION_TYPE":"U","NORAD_CAT_ID":68020,"ELEMENT_SET_NO":999,"REV_AT_EPOCH":267,"BSTAR":-0.0018295168,"MEAN_MOTION_DOT":-0.01055558,"MEAN_MOTION_DDOT":0.00037203106},{"OBJECT_NAME":"STARLINK-36858","OBJECT_ID":"2026-040G","EPOCH":"2026-03-11T06:00:02.000160","MEAN_MOTION":16.06288628,"ECCENTRICITY":9.107e-5,"INCLINATION":97.2752,"RA_OF_ASC_NODE":18.5747,"ARG_OF_PERICENTER":173.7624,"MEAN_ANOMALY":329.7639,"EPHEMERIS_TYPE":0,"CLASSIFICATION_TYPE":"U","NORAD_CAT_ID":68021,"ELEMENT_SET_NO":999,"REV_AT_EPOCH":267,"BSTAR":0.0013933816,"MEAN_MOTION_DOT":0.0101329,"MEAN_MOTION_DDOT":0.00056942416},{"OBJECT_NAME":"STARLINK-36916","OBJECT_ID":"2026-040H","EPOCH":"2026-03-11T06:00:02.000160","MEAN_MOTION":16.02632363,"ECCENTRICITY":0.00010154,"INCLINATION":97.2759,"RA_OF_ASC_NODE":18.5746,"ARG_OF_PERICENTER":107.9206,"MEAN_ANOMALY":32.4198,"EPHEMERIS_TYPE":0,"CLASSIFICATION_TYPE":"U","NORAD_CAT_ID":68022,"ELEMENT_SET_NO":999,"REV_AT_EPOCH":267,"BSTAR":-0.0017966519,"MEAN_MOTION_DOT":-0.0105533,"MEAN_MOTION_DDOT":0.00037321421},{"OBJECT_NAME":"STARLINK-36871","OBJECT_ID":"2026-040J","EPOCH":"2026-03-11T06:00:02.000160","MEAN_MOTION":16.02738377,"ECCENTRICITY":0.00010251,"INCLINATION":97.2755,"RA_OF_ASC_NODE":18.5755,"ARG_OF_PERICENTER":106.9828,"MEAN_ANOMALY":36.3552,"EPHEMERIS_TYPE":0,"CLASSIFICATION_TYPE":"U","NORAD_CAT_ID":68023,"ELEMENT_SET_NO":999,"REV_AT_EPOCH":267,"BSTAR":-0.0017851885,"MEAN_MOTION_DOT":-0.01055124,"MEAN_MOTION_DDOT":0.00037354074},{"OBJECT_NAME":"STARLINK-36891","OBJECT_ID":"2026-040K","EPOCH":"2026-03-11T06:00:02.000160","MEAN_MOTION":16.02867412,"ECCENTRICITY":0.00010909,"INCLINATION":97.2754,"RA_OF_ASC_NODE":18.5773,"ARG_OF_PERICENTER":116.7198,"MEAN_ANOMALY":30.3188,"EPHEMERIS_TYPE":0,"CLASSIFICATION_TYPE":"U","NORAD_CAT_ID":68024,"ELEMENT_SET_NO":999,"REV_AT_EPOCH":267,"BSTAR":-0.0017885055,"MEAN_MOTION_DOT":-0.01065027,"MEAN_MOTION_DDOT":0.00038062391},{"OBJECT_NAME":"STARLINK-36378","OBJECT_ID":"2026-040L","EPOCH":"2026-03-11T06:00:02.000160","MEAN_MOTION":16.03087333,"ECCENTRICITY":0.00010594,"INCLINATION":97.2764,"RA_OF_ASC_NODE":18.5805,"ARG_OF_PERICENTER":118.4329,"MEAN_ANOMALY":35.1185,"EPHEMERIS_TYPE":0,"CLASSIFICATION_TYPE":"U","NORAD_CAT_ID":68025,"ELEMENT_SET_NO":999,"REV_AT_EPOCH":262,"BSTAR":-0.0017497258,"MEAN_MOTION_DOT":-0.01055563,"MEAN_MOTION_DDOT":0.00037535438},{"OBJECT_NAME":"STARLINK-36884","OBJECT_ID":"2026-040M","EPOCH":"2026-03-11T06:00:02.000160","MEAN_MOTION":16.0297479,"ECCENTRICITY":0.00010307,"INCLINATION":97.276,"RA_OF_ASC_NODE":18.5784,"ARG_OF_PERICENTER":118.6678,"MEAN_ANOMALY":31.7282,"EPHEMERIS_TYPE":0,"CLASSIFICATION_TYPE":"U","NORAD_CAT_ID":68026,"ELEMENT_SET_NO":999,"REV_AT_EPOCH":267,"BSTAR":-0.0017612198,"MEAN_MOTION_DOT":-0.01055488,"MEAN_MOTION_DDOT":0.00037481059},{"OBJECT_NAME":"STARLINK-36940","OBJECT_ID":"2026-040N","EPOCH":"2026-03-11T06:00:02.000160","MEAN_MOTION":16.04704212,"ECCENTRICITY":0.00013491,"INCLINATION":97.2773,"RA_OF_ASC_NODE":18.6053,"ARG_OF_PERICENTER":118.5545,"MEAN_ANOMALY":94.6577,"EPHEMERIS_TYPE":0,"CLASSIFICATION_TYPE":"U","NORAD_CAT_ID":68027,"ELEMENT_SET_NO":999,"REV_AT_EPOCH":277,"BSTAR":-0.0020288096,"MEAN_MOTION_DOT":-0.01344111,"MEAN_MOTION_DDOT":0.00059829909},{"OBJECT_NAME":"STARLINK-36253","OBJECT_ID":"2026-040P","EPOCH":"2026-03-11T06:00:02.000160","MEAN_MOTION":15.87132317,"ECCENTRICITY":0.00016776,"INCLINATION":97.2775,"RA_OF_ASC_NODE":18.493,"ARG_OF_PERICENTER":120.6644,"MEAN_ANOMALY":198.4032,"EPHEMERIS_TYPE":0,"CLASSIFICATION_TYPE":"U","NORAD_CAT_ID":68028,"ELEMENT_SET_NO":999,"REV_AT_EPOCH":277,"BSTAR":-0.0092578042,"MEAN_MOTION_DOT":-0.02069776,"MEAN_MOTION_DDOT":0},{"OBJECT_NAME":"STARLINK-36944","OBJECT_ID":"2026-040Q","EPOCH":"2026-03-11T06:00:02.000160","MEAN_MOTION":16.03189797,"ECCENTRICITY":9.868e-5,"INCLINATION":97.2753,"RA_OF_ASC_NODE":18.5806,"ARG_OF_PERICENTER":107.7918,"MEAN_ANOMALY":48.6099,"EPHEMERIS_TYPE":0,"CLASSIFICATION_TYPE":"U","NORAD_CAT_ID":68029,"ELEMENT_SET_NO":999,"REV_AT_EPOCH":267,"BSTAR":-0.0017287377,"MEAN_MOTION_DOT":-0.01049257,"MEAN_MOTION_DDOT":0.00037166485},{"OBJECT_NAME":"STARLINK-36942","OBJECT_ID":"2026-040R","EPOCH":"2026-03-11T06:00:02.000160","MEAN_MOTION":16.03307002,"ECCENTRICITY":0.00010392,"INCLINATION":97.2764,"RA_OF_ASC_NODE":18.5826,"ARG_OF_PERICENTER":114.0396,"MEAN_ANOMALY":45.5992,"EPHEMERIS_TYPE":0,"CLASSIFICATION_TYPE":"U","NORAD_CAT_ID":68030,"ELEMENT_SET_NO":999,"REV_AT_EPOCH":267,"BSTAR":-0.0017193554,"MEAN_MOTION_DOT":-0.01050791,"MEAN_MOTION_DDOT":0.00037318323},{"OBJECT_NAME":"STARLINK-36913","OBJECT_ID":"2026-040S","EPOCH":"2026-03-11T06:00:02.000160","MEAN_MOTION":16.03425309,"ECCENTRICITY":0.00012041,"INCLINATION":97.2762,"RA_OF_ASC_NODE":18.5837,"ARG_OF_PERICENTER":116.4658,"MEAN_ANOMALY":46.3936,"EPHEMERIS_TYPE":0,"CLASSIFICATION_TYPE":"U","NORAD_CAT_ID":68031,"ELEMENT_SET_NO":999,"REV_AT_EPOCH":267,"BSTAR":-0.0017097193,"MEAN_MOTION_DOT":-0.01052237,"MEAN_MOTION_DDOT":0.00037465422},{"OBJECT_NAME":"STARLINK-36935","OBJECT_ID":"2026-040T","EPOCH":"2026-03-11T06:00:02.000160","MEAN_MOTION":16.04323327,"ECCENTRICITY":0.00012707,"INCLINATION":97.2762,"RA_OF_ASC_NODE":18.5926,"ARG_OF_PERICENTER":124.0048,"MEAN_ANOMALY":60.9112,"EPHEMERIS_TYPE":0,"CLASSIFICATION_TYPE":"U","NORAD_CAT_ID":68032,"ELEMENT_SET_NO":999,"REV_AT_EPOCH":277,"BSTAR":-0.0018810987,"MEAN_MOTION_DOT":-0.0121942,"MEAN_MOTION_DDOT":0.00049736487},{"OBJECT_NAME":"STARLINK-36947","OBJECT_ID":"2026-040U","EPOCH":"2026-03-11T06:00:02.000160","MEAN_MOTION":16.03521474,"ECCENTRICITY":0.00010271,"INCLINATION":97.2762,"RA_OF_ASC_NODE":18.5849,"ARG_OF_PERICENTER":116.544,"MEAN_ANOMALY":48.9691,"EPHEMERIS_TYPE":0,"CLASSIFICATION_TYPE":"U","NORAD_CAT_ID":68033,"ELEMENT_SET_NO":999,"REV_AT_EPOCH":267,"BSTAR":-0.0016840408,"MEAN_MOTION_DOT":-0.01042405,"MEAN_MOTION_DDOT":0.00036862173},{"OBJECT_NAME":"STARLINK-36939","OBJECT_ID":"2026-040V","EPOCH":"2026-03-11T06:00:02.000160","MEAN_MOTION":16.04000245,"ECCENTRICITY":0.00011061,"INCLINATION":97.2768,"RA_OF_ASC_NODE":18.59,"ARG_OF_PERICENTER":119.9456,"MEAN_ANOMALY":57.6447,"EPHEMERIS_TYPE":0,"CLASSIFICATION_TYPE":"U","NORAD_CAT_ID":68034,"ELEMENT_SET_NO":999,"REV_AT_EPOCH":267,"BSTAR":-0.001687919,"MEAN_MOTION_DOT":-0.01074632,"MEAN_MOTION_DDOT":0.00039219526}]
