STARLINK-36921          
1 68019U 26040E   26070.25002315 -.01052306  37034-3 -18134-2 0  9997
2 68019  97.2764  18.5726 0001106 121.0334  13.3751 16.02423775  2674
STARLINK-36928          
1 68020U 26040F   26070.25002315 -.01055558  37203-3 -18295-2 0  9997
2 68020  97.2760  18.5705 0001177 113.4907  17.9280 16.02325090  2676
STARLINK-36858          
1 68021U 26040G   26070.25002315  .01013290  56942-3  13934-2 0  9999
2 68021  97.2752  18.5747 0000910 173.7624 329.7639 16.06288628  2674
STARLINK-36916          
1 68022U 26040H   26070.25002315 -.01055330  37321-3 -17967-2 0  9993
2 68022  97.2759  18.5746 0001015 107.9206  32.4198 16.02632363  2676
STARLINK-36871          
1 68023U 26040J   26070.25002315 -.01055124  37354-3 -17852-2 0  9994
2 68023  97.2755  18.5755 0001025 106.9828  36.3552 16.02738377  2672
STARLINK-36891          
1 68024U 26040K   26070.25002315 -.01065027  38062-3 -17885-2 0  9991
2 68024  97.2754  18.5773 0001090 116.7198  30.3188 16.02867412  2675
STARLINK-36378          
1 68025U 26040L   26070.25002315 -.01055563  37535-3 -17497-2 0  9999
2 68025  97.2764  18.5805 0001059 118.4329  35.1185 16.03087333  2625
STARLINK-36884          
1 68026U 26040M   26070.25002315 -.01055488  37481-3 -17612-2 0  9995
2 68026  97.2760  18.5784 0001030 118.6678  31.7282 16.02974790  2672
STARLINK-36940          
1 68027U 26040N   26070.25002315 -.01344111  59830-3 -20288-2 0  9995
2 68027  97.2773  18.6053 0001349 118.5545  94.6577 16.04704212  2770
STARLINK-36253          
1 68028U 26040P   26070.25002315 -.02069776  00000+0 -92578-2 0  9990
2 68028  97.2775  18.4930 0001677 120.6644 198.4032 15.87132317  2773
STARLINK-36944          
1 68029U 26040Q   26070.25002315 -.01049257  37166-3 -17287-2 0  9993
2 68029  97.2753  18.5806 0000986 107.7918  48.6099 16.03189797  2676
STARLINK-36942          
1 68030U 26040R   26070.25002315 -.01050791  37318-3 -17194-2 0  9996
2 68030  97.2764  18.5826 0001039 114.0396  45.5992 16.03307002  2672
STARLINK-36913          
1 68031U 26040S   26070.25002315 -.01052237  37465-3 -17097-2 0  9999
2 68031  97.2762  18.5837 0001204 116.4658  46.3936 16.03425309  2672
STARLINK-36935          
1 68032U 26040T   26070.25002315 -.01219420  49736-3 -18811-2 0  9998
2 68032  97.2762  18.5926 0001270 124.0048  60.9112 16.04323327  2770
STARLINK-36947          
1 68033U 26040U   26070.25002315 -.01042405  36862-3 -16840-2 0  9992
2 68033  97.2762  18.5849 0001027 116.5440  48.9691 16.03521474  2676
STARLINK-36939          
1 68034U 26040V   26070.25002315 -.01074632  39220-3 -16879-2 0  9993
2 68034  97.2768  18.5900 0001106 119.9456  57.6447 16.04000245  2678
